[
    {
        "Altitude(m)": 586536.5318454917,
        "Argument of Periapsis(deg)": -0.022603160782972403,
        "Eccentricity": 0.0,
        "Inclination(deg)": 97.0,
        "Latitude(deg)": -59.92797954366342,
        "Longitude(deg)": 155.4800375272631,
        "Mean Anomaly(deg)": 240.4797432691874,
        "RAAN(deg)": 90.0059470536185,
        "Satellite Name": "Starlink Shell 3 1791",
        "Satellite Number": 1791,
        "Semi-Major Axis(m)": 6938478.169268562,
        "Time(s)": 570
    },
    {
        "Altitude(m)": 586741.7561595119,
        "Argument of Periapsis(deg)": -0.02299970746337543,
        "Eccentricity": 0.0,
        "Inclination(deg)": 97.0,
        "Latitude(deg)": -60.531007344116915,
        "Longitude(deg)": 155.1325848157908,
        "Mean Anomaly(deg)": 241.10521946689258,
        "RAAN(deg)": 90.00605138789253,
        "Satellite Name": "Starlink Shell 3 1791",
        "Satellite Number": 1791,
        "Semi-Major Axis(m)": 6938478.169268562,
        "Time(s)": 580
    },
    {
        "Altitude(m)": 586943.9227303491,
        "Argument of Periapsis(deg)": -0.023396254143778456,
        "Eccentricity": 0.0,
        "Inclination(deg)": 97.0,
        "Latitude(deg)": -61.13323367240019,
        "Longitude(deg)": 154.7735728490086,
        "Mean Anomaly(deg)": 241.7306956645975,
        "RAAN(deg)": 90.00615572216653,
        "Satellite Name": "Starlink Shell 3 1791",
        "Satellite Number": 1791,
        "Semi-Major Axis(m)": 6938478.169268562,
        "Time(s)": 590
    },
    {
        "Altitude(m)": 587142.9502698464,
        "Argument of Periapsis(deg)": -0.023792800824181483,
        "Eccentricity": 0.0,
        "Inclination(deg)": 97.0,
        "Latitude(deg)": -61.73461325574366,
        "Longitude(deg)": 154.40227422792083,
        "Mean Anomaly(deg)": 242.35617186230266,
        "RAAN(deg)": 90.00626005644054,
        "Satellite Name": "Starlink Shell 3 1791",
        "Satellite Number": 1791,
        "Semi-Major Axis(m)": 6938478.169268562,
        "Time(s)": 600
    },
    {
        "Altitude(m)": 587338.758717212,
        "Argument of Periapsis(deg)": -0.024189347504584503,
        "Eccentricity": 0.0,
        "Inclination(deg)": 97.0,
        "Latitude(deg)": -62.335096896174896,
        "Longitude(deg)": 154.01790132267269,
        "Mean Anomaly(deg)": 242.9816480600077,
        "RAAN(deg)": 90.00636439071454,
        "Satellite Name": "Starlink Shell 3 1791",
        "Satellite Number": 1791,
        "Semi-Major Axis(m)": 6938478.169268562,
        "Time(s)": 610
    },
    {
        "Altitude(m)": 587531.2692737577,
        "Argument of Periapsis(deg)": -0.02458589418498753,
        "Eccentricity": 0.0,
        "Inclination(deg)": 97.0,
        "Latitude(deg)": -62.934631045909214,
        "Longitude(deg)": 153.61960056654226,
        "Mean Anomaly(deg)": 243.6071242577127,
        "RAAN(deg)": 90.00646872498854,
        "Satellite Name": "Starlink Shell 3 1791",
        "Satellite Number": 1791,
        "Semi-Major Axis(m)": 6938478.169268562,
        "Time(s)": 620
    },
    {
        "Altitude(m)": 587720.4044370066,
        "Argument of Periapsis(deg)": -0.024982440865390556,
        "Eccentricity": 0.0,
        "Inclination(deg)": 97.0,
        "Latitude(deg)": -63.53315732817805,
        "Longitude(deg)": 153.2064443102192,
        "Mean Anomaly(deg)": 244.23260045541775,
        "RAAN(deg)": 90.00657305926256,
        "Satellite Name": "Starlink Shell 3 1791",
        "Satellite Number": 1791,
        "Semi-Major Axis(m)": 6938478.169268562,
        "Time(s)": 630
    },
    {
        "Altitude(m)": 587906.0880342271,
        "Argument of Periapsis(deg)": -0.025378987545793576,
        "Eccentricity": 0.0,
        "Inclination(deg)": 97.0,
        "Latitude(deg)": -64.13061199533456,
        "Longitude(deg)": 152.77742433288415,
        "Mean Anomaly(deg)": 244.8580766531228,
        "RAAN(deg)": 90.00667739353656,
        "Satellite Name": "Starlink Shell 3 1791",
        "Satellite Number": 1791,
        "Semi-Major Axis(m)": 6938478.169268562,
        "Time(s)": 640
    },
    {
        "Altitude(m)": 588088.2452553697,
        "Argument of Periapsis(deg)": -0.025775534226196602,
        "Eccentricity": 0.0,
        "Inclination(deg)": 97.0,
        "Latitude(deg)": -64.72692531467193,
        "Longitude(deg)": 152.33144184499244,
        "Mean Anomaly(deg)": 245.48355285082786,
        "RAAN(deg)": 90.00678172781058,
        "Satellite Name": "Starlink Shell 3 1791",
        "Satellite Number": 1791,
        "Semi-Major Axis(m)": 6938478.169268562,
        "Time(s)": 650
    },
    {
        "Altitude(m)": 588266.8026853247,
        "Argument of Periapsis(deg)": -0.026172080906599626,
        "Eccentricity": 0.0,
        "Inclination(deg)": 97.0,
        "Latitude(deg)": -65.32202087075618,
        "Longitude(deg)": 151.86729804405087,
        "Mean Anomaly(deg)": 246.1090290485329,
        "RAAN(deg)": 90.0068860620846,
        "Satellite Name": "Starlink Shell 3 1791",
        "Satellite Number": 1791,
        "Semi-Major Axis(m)": 6938478.169268562,
        "Time(s)": 660
    },
    {
        "Altitude(m)": 588441.6883356093,
        "Argument of Periapsis(deg)": -0.026568627587002652,
        "Eccentricity": 0.0,
        "Inclination(deg)": 97.0,
        "Latitude(deg)": -65.91581477109737,
        "Longitude(deg)": 151.3836833793022,
        "Mean Anomaly(deg)": 246.73450524623786,
        "RAAN(deg)": 90.0069903963586,
        "Satellite Name": "Starlink Shell 3 1791",
        "Satellite Number": 1791,
        "Semi-Major Axis(m)": 6938478.169268562,
        "Time(s)": 670
    },
    {
        "Altitude(m)": 588612.8316753493,
        "Argument of Periapsis(deg)": -0.02696517426740568,
        "Eccentricity": 0.0,
        "Inclination(deg)": 97.0,
        "Latitude(deg)": -66.50821473963971,
        "Longitude(deg)": 150.8791638238182,
        "Mean Anomaly(deg)": 247.3599814439429,
        "RAAN(deg)": 90.0070947306326,
        "Satellite Name": "Starlink Shell 3 1791",
        "Satellite Number": 1791,
        "Semi-Major Axis(m)": 6938478.169268562,
        "Time(s)": 680
    },
    {
        "Altitude(m)": 588780.1636616555,
        "Argument of Periapsis(deg)": -0.0273617209478087,
        "Eccentricity": 0.0,
        "Inclination(deg)": 97.0,
        "Latitude(deg)": -67.09911907974974,
        "Longitude(deg)": 150.35216696157138,
        "Mean Anomaly(deg)": 247.98545764164797,
        "RAAN(deg)": 90.00719906490663,
        "Satellite Name": "Starlink Shell 3 1791",
        "Satellite Number": 1791,
        "Semi-Major Axis(m)": 6938478.169268562,
        "Time(s)": 690
    },
    {
        "Altitude(m)": 588943.6167692643,
        "Argument of Periapsis(deg)": -0.027758267628211725,
        "Eccentricity": 0.0,
        "Inclination(deg)": 97.0,
        "Latitude(deg)": -67.68841548501427,
        "Longitude(deg)": 149.80096612433434,
        "Mean Anomaly(deg)": 248.610933839353,
        "RAAN(deg)": 90.00730339918063,
        "Satellite Name": "Starlink Shell 3 1791",
        "Satellite Number": 1791,
        "Semi-Major Axis(m)": 6938478.169268562,
        "Time(s)": 700
    },
    {
        "Altitude(m)": 589103.1250195637,
        "Argument of Periapsis(deg)": -0.028154814308614752,
        "Eccentricity": 0.0,
        "Inclination(deg)": 97.0,
        "Latitude(deg)": -68.27597967212438,
        "Longitude(deg)": 149.22366077403353,
        "Mean Anomaly(deg)": 249.23641003705805,
        "RAAN(deg)": 90.00740773345464,
        "Satellite Name": "Starlink Shell 3 1791",
        "Satellite Number": 1791,
        "Semi-Major Axis(m)": 6938478.169268562,
        "Time(s)": 710
    },
    {
        "Altitude(m)": 589258.6240088869,
        "Argument of Periapsis(deg)": -0.02855136098901778,
        "Eccentricity": 0.0,
        "Inclination(deg)": 97.0,
        "Latitude(deg)": -68.86167380527868,
        "Longitude(deg)": 148.61815581995475,
        "Mean Anomaly(deg)": 249.8618862347631,
        "RAAN(deg)": 90.00751206772864,
        "Satellite Name": "Starlink Shell 3 1791",
        "Satellite Number": 1791,
        "Semi-Major Axis(m)": 6938478.169268562,
        "Time(s)": 720
    },
    {
        "Altitude(m)": 589410.0509361032,
        "Argument of Periapsis(deg)": -0.028947907669420805,
        "Eccentricity": 0.0,
        "Inclination(deg)": 97.0,
        "Latitude(deg)": -69.44534467570291,
        "Longitude(deg)": 147.98213797073862,
        "Mean Anomaly(deg)": 250.48736243246813,
        "RAAN(deg)": 90.00761640200267,
        "Satellite Name": "Starlink Shell 3 1791",
        "Satellite Number": 1791,
        "Semi-Major Axis(m)": 6938478.169268562,
        "Time(s)": 730
    },
    {
        "Altitude(m)": 589557.3446295103,
        "Argument of Periapsis(deg)": -0.029344454349823825,
        "Eccentricity": 0.0,
        "Inclination(deg)": 97.0,
        "Latitude(deg)": -70.02682159285817,
        "Longitude(deg)": 147.3130471641319,
        "Mean Anomaly(deg)": 251.1128386301732,
        "RAAN(deg)": 90.00772073627667,
        "Satellite Name": "Starlink Shell 3 1791",
        "Satellite Number": 1791,
        "Semi-Major Axis(m)": 6938478.169268562,
        "Time(s)": 740
    },
    {
        "Altitude(m)": 589700.4455730078,
        "Argument of Periapsis(deg)": -0.029741001030226845,
        "Eccentricity": 0.0,
        "Inclination(deg)": 97.0,
        "Latitude(deg)": -70.6059139354673,
        "Longitude(deg)": 146.60804559325717,
        "Mean Anomaly(deg)": 251.73831482787824,
        "RAAN(deg)": 90.00782507055067,
        "Satellite Name": "Starlink Shell 3 1791",
        "Satellite Number": 1791,
        "Semi-Major Axis(m)": 6938478.169268562,
        "Time(s)": 750
    }
]